EYESAT A (AO-27)        
1 22825U 93061C   26137.16333613  .00000055  00000+0  38073-4 0  9997
2 22825  98.6890 204.5858 0008296 183.5953 176.5172 14.30933084702566
ITAMSAT (IO-26)         
1 22826U 93061D   26137.15198838  .00000063  00000+0  40581-4 0  9991
2 22826  98.6839 204.4887 0009156 167.6722 192.4686 14.31359115702873
RADIO ROSTO (RS15)      
1 23439U 94085A   26137.16349197 -.00000048  00000+0 -16633-3 0  9991
2 23439  64.8189 353.3920 0155082   9.5648 350.8172 11.27583625292400
JAS-2 (FO-29)           
1 24278U 96046B   26137.11007988  .00000011  00000+0  45779-4 0  9998
2 24278  98.5271 350.2340 0349925 176.9254 183.4153 13.53272603468960
FORTE                   
1 24920U 97047A   26137.13291631  .00000104  00000+0  65050-4 0  9993
2 24920  69.9528  84.1625 0023841 315.3122  44.6078 14.27931271494259
TECHSAT 1B (GO-32)      
1 25397U 98043D   26137.22764541  .00000009  00000+0  24255-4 0  9990
2 25397  99.0065 129.2072 0000774   3.4096 356.7087 14.24421850446922
ISS (ZARYA)             
1 25544U 98067A   26137.03684517  .00005133  00000+0  10043-3 0  9995
2 25544  51.6321  94.3035 0007556  67.0843 293.0943 15.49238964566924
IMAGE                   
1 26113U 00017A   26131.51486742  .00000008  00000+0 -20584-1 0  9999
2 26113  94.2002 314.8870 7459903 291.9767   8.1989  1.68665748160880
CLUSTER II-FM7 (SAMBA)  
1 26410U 00041A   26136.90193215  .00003611  00000+0  00000+0 0  9995
2 26410 149.8252  45.4159 9017491 262.1600   0.5378  0.44878750 20167
CLUSTER II-FM8 (TANGO)  
1 26464U 00045B   26136.89704581  .00003719  00000+0  00000+0 0  9999
2 26464 150.0886  46.4719 9022759 263.0807   0.4723  0.44400393 20154
ODIN                    
1 26702U 01007A   26136.94450696  .00098840  00000+0  93021-3 0  9992
2 26702  97.3908 176.0987 0003086 185.9446 174.1778 15.66789909384490
OMNI-M1                 
1 26857U 01026A   26136.37865379 -.00000011  00000+0  00000+0 0  9994
2 26857  44.8421 252.5957 0015297  48.1988 311.9568  3.92401279204321
PCSAT (NO-44)           
1 26931U 01043C   26136.93828738  .00000066  00000+0  55711-4 0  9999
2 26931  67.0509 325.0958 0006239 263.6964  96.3427 14.31943070285972
PROBA-1                 
1 26958U 01049B   26137.20362991  .00000838  00000+0  58333-4 0  9999
2 26958  97.9607 144.6566 0053681 226.4964 133.1795 15.07369965338956
SAUDISAT 1C (SO-50)     
1 27607U 02058C   26137.20310890  .00000585  00000+0  86946-4 0  9993
2 27607  64.5521 224.8432 0075628 268.1386  91.1057 14.82976631259864
CORIOLIS                
1 27640U 03001A   26136.98108970  .00000066  00000+0  51825-4 0  9999
2 27640  98.7135 144.3419 0012988 305.8473  54.1496 14.19935774209794
CUTE-1 (CO-55)          
1 27844U 03031E   26136.98733409  .00000179  00000+0  96322-4 0  9995
2 27844  98.6746 145.9384 0008291 277.1564  82.8672 14.24315051187233
CUBESAT XI-IV (CO-57)   
1 27848U 03031J   26136.96017615  .00000150  00000+0  85081-4 0  9990
2 27848  98.6778 145.6494 0008323 298.5397  61.4943 14.23602877186932
MOZHAETS 4 (RS22)       
1 27939U 03042A   26137.19015926  .00000604  00000+0  10149-3 0  9998
2 27939  98.3462 320.6755 0011616  13.7292 113.8051 14.73408350210985
