OBJECT_NAME,OBJECT_ID,EPOCH,MEAN_MOTION,ECCENTRICITY,INCLINATION,RA_OF_ASC_NODE,ARG_OF_PERICENTER,MEAN_ANOMALY,EPHEMERIS_TYPE,CLASSIFICATION_TYPE,NORAD_CAT_ID,ELEMENT_SET_NO,REV_AT_EPOCH,BSTAR,MEAN_MOTION_DOT,MEAN_MOTION_DDOT
EYESAT A (AO-27),1993-061C,2026-05-17T03:55:12.241632,14.30933084,.0008296,98.6890,204.5858,183.5953,176.5172,0,U,22825,999,70256,.38073E-4,.55E-6,0
ITAMSAT (IO-26),1993-061D,2026-05-17T03:38:51.796032,14.31359115,.0009156,98.6839,204.4887,167.6722,192.4686,0,U,22826,999,70287,.40581E-4,.63E-6,0
RADIO ROSTO (RS15),1994-085A,2026-05-17T03:55:25.706208,11.27583625,.0155082,64.8189,353.3920,9.5648,350.8172,0,U,23439,999,29240,-.16633E-3,-.48E-6,0
JAS-2 (FO-29),1996-046B,2026-05-17T02:38:30.901632,13.53272603,.0349925,98.5271,350.2340,176.9254,183.4153,0,U,24278,999,46896,.45779E-4,.11E-6,0
FORTE,1997-047A,2026-05-17T03:11:23.969184,14.27931271,.0023841,69.9528,84.1625,315.3122,44.6078,0,U,24920,999,49425,.6505E-4,.104E-5,0
TECHSAT 1B (GO-32),1998-043D,2026-05-17T05:27:48.563424,14.24421850,.0000774,99.0065,129.2072,3.4096,356.7087,0,U,25397,999,44692,.24255E-4,.9E-7,0
ISS (ZARYA),1998-067A,2026-05-17T00:53:03.422688,15.49238964,.0007556,51.6321,94.3035,67.0843,293.0943,0,U,25544,999,56692,.10043E-3,.5133E-4,0
IMAGE,2000-017A,2026-05-11T12:21:24.545088,1.68665748,.74599038,94.2002,314.8870,291.9767,8.1989,0,U,26113,999,16088,-.20584314E-1,.8E-7,0
CLUSTER II-FM7 (SAMBA),2000-041A,2026-05-16T21:38:46.937760,0.44878750,.90174919,149.8252,45.4159,262.1600,0.5378,0,U,26410,999,2016,0,.3611E-4,0
CLUSTER II-FM8 (TANGO),2000-045B,2026-05-16T21:31:44.757984,0.44400393,.90227595,150.0886,46.4719,263.0807,0.4723,0,U,26464,999,2015,0,.3719E-4,0
ODIN,2001-007A,2026-05-16T22:40:05.401344,15.66789909,.0003086,97.3908,176.0987,185.9446,174.1778,0,U,26702,999,38449,.93021E-3,.9884E-3,0
OMNI-M1,2001-026A,2026-05-16T09:05:15.687456,3.92401279,.00152975,44.8421,252.5957,48.1988,311.9568,0,U,26857,999,20432,0,-.11E-6,0
PCSAT (NO-44),2001-043C,2026-05-16T22:31:08.029632,14.31943070,.0006239,67.0509,325.0958,263.6964,96.3427,0,U,26931,999,28597,.55711E-4,.66E-6,0
PROBA-1,2001-049B,2026-05-17T04:53:13.624224,15.07369965,.0053681,97.9607,144.6566,226.4964,133.1795,0,U,26958,999,33895,.58333E-4,.838E-5,0
SAUDISAT 1C (SO-50),2002-058C,2026-05-17T04:52:28.608960,14.82976631,.0075628,64.5521,224.8432,268.1386,91.1057,0,U,27607,999,25986,.86946E-4,.585E-5,0
CORIOLIS,2003-001A,2026-05-16T23:32:46.150080,14.19935774,.0012988,98.7135,144.3419,305.8473,54.1496,0,U,27640,999,20979,.51825E-4,.66E-6,0
CUTE-1 (CO-55),2003-031E,2026-05-16T23:41:45.665376,14.24315051,.0008291,98.6746,145.9384,277.1564,82.8672,0,U,27844,999,18723,.96322E-4,.179E-5,0
CUBESAT XI-IV (CO-57),2003-031J,2026-05-16T23:02:39.219360,14.23602877,.0008323,98.6778,145.6494,298.5397,61.4943,0,U,27848,999,18693,.85081E-4,.15E-5,0
MOZHAETS 4 (RS22),2003-042A,2026-05-17T04:33:49.760064,14.73408350,.0011616,98.3462,320.6755,13.7292,113.8051,0,U,27939,999,21098,.10149E-3,.604E-5,0
